{"_corrupt_record":"Location"}
{"human_address":{"address":"601 SARATOGA ST","city":"COHOES","state":"NY","zip":"12047"},"latitude":"42.754424","longitude":"-73.700539","needs_recoding":false}
{"human_address":{"address":"165 PAINE STREET","city":"GREEN ISLAND","state":"NY","zip":"12183"},"latitude":"42.746003","longitude":"-73.691984","needs_recoding":false}
{"human_address":{"address":"315 19TH STREET","city":"WATERVLIET","state":"NY","zip":"12189"},"latitude":"42.73063","longitude":"-73.703443","needs_recoding":false}
{"human_address":{"address":"1465 WASHINGTON AVE","city":"ALBANY","state":"NY","zip":"12203"},"latitude":"42.690493","longitude":"-73.821889","needs_recoding":false}
{"human_address":{"address":"2160 BERNE ALTAMONT RD","city":"KNOX","state":"NY","zip":"12107"},"needs_recoding":false}
{"human_address":{"address":"1 CROSSGATES MALL RD","city":"ALBANY","state":"NY","zip":"12203"},"latitude":"42.687038","longitude":"-73.850605","needs_recoding":false}
{"human_address":{"address":"113 EVERETT RD","city":"ALBANY","state":"NY","zip":"12205"},"latitude":"42.693853","longitude":"-73.773554","needs_recoding":false}
{"human_address":{"address":"1348 CENTRAL AVENUE","city":"ALBANY","state":"NY","zip":"12205"},"latitude":"42.70305","longitude":"-73.816231","needs_recoding":false}
{"human_address":{"address":"926 CENTRAL AVENUE","city":"ALBANY","state":"NY","zip":"12205"},"latitude":"42.681304","longitude":"-73.79143","needs_recoding":false}
{"human_address":{"address":"215 WESTERN AVE","city":"ALBANY","state":"NY","zip":"12203"},"latitude":"42.661759","longitude":"-73.776924","needs_recoding":false}
{"human_address":{"address":"179 S PEARL STREET","city":"ALBANY","state":"NY","zip":"12202"},"latitude":"42.644507","longitude":"-73.755425","needs_recoding":false}
{"human_address":{"address":"4449 WESTERN TPKE","city":"ALTAMONT","state":"NY","zip":"12009"},"latitude":"42.735034","longitude":"-73.985823","needs_recoding":false}
{"human_address":{"address":"2463 US ROUTE","city":"RAVENA","state":"NY","zip":"12143"},"needs_recoding":false}
{"human_address":{"address":"213 MAIN STREET","city":"RAVENA","state":"NY","zip":"12143"},"latitude":"42.46927","longitude":"-73.815353","needs_recoding":false}
{"human_address":{"address":"1358 NEW SCOTLAND RD","city":"SLINGERLANDS","state":"NY","zip":"12159"},"latitude":"42.639441","longitude":"-73.854274","needs_recoding":false}
{"human_address":{"address":"504 HUDSON AVE","city":"ALBANY","state":"NY","zip":"12206"},"latitude":"42.661976","longitude":"-73.780467","needs_recoding":false}
{"human_address":{"address":"933 LOUDON ROAD","city":"LATHAM","state":"NY","zip":"12110"},"latitude":"42.763655","longitude":"-73.755404","needs_recoding":false}
{"human_address":{"address":"125 MAIN ST","city":"COHOES","state":"NY","zip":"12047"},"latitude":"42.768765","longitude":"-73.70083","needs_recoding":false}
{"human_address":{"address":"1901 2ND AVENUE","city":"WATERVLIET","state":"NY","zip":"12189"},"latitude":"42.73078","longitude":"-73.701397","needs_recoding":false}
{"human_address":{"address":"1823 WESTERN AVE","city":"ALBANY","state":"NY","zip":"12203"},"latitude":"42.69096","longitude":"-73.868679","needs_recoding":false}
{"human_address":{"address":"911 CENTRAL AVENUE","city":"ALBANY","state":"NY","zip":"12206"},"latitude":"42.681478","longitude":"-73.791629","needs_recoding":false}
{"human_address":{"address":"463 ALBANY SHAKER ROAD","city":"ALBANY","state":"NY","zip":"12211"},"latitude":"42.705369","longitude":"-73.776379","needs_recoding":false}
{"human_address":{"address":"1215 TROY SCHENECTADY ROAD","city":"LATHAM","state":"NY","zip":"12110"},"latitude":"42.772845","longitude":"-73.824616","needs_recoding":false}
{"human_address":{"address":"1 CROSSGATES MALL RD","city":"ALBANY","state":"NY","zip":"12203"},"latitude":"42.687038","longitude":"-73.850605","needs_recoding":false}
{"human_address":{"address":"113 EVERETTE ROAD","city":"ALBANY","state":"NY","zip":"12211"},"latitude":"42.693853","longitude":"-73.773554","needs_recoding":false}
{"human_address":{"address":"32 CENTRAL AVE","city":"ALBANY","state":"NY","zip":"12210"},"latitude":"42.657999","longitude":"-73.764778","needs_recoding":false}
{"human_address":{"address":"22 QUAIL ST","city":"ALBANY","state":"NY","zip":"12206"},"latitude":"42.668725","longitude":"-73.768746","needs_recoding":false}
{"human_address":{"address":"640 NEW LOUDON RD","city":"LATHAM","state":"NY","zip":"12110"},"latitude":"42.734074","longitude":"-73.762289","needs_recoding":false}
{"human_address":{"address":"435 LOUDON RD","city":"ALBANY","state":"NY","zip":"12211"},"latitude":"42.705749","longitude":"-73.754651","needs_recoding":false}
{"human_address":{"address":"326 WATERVLIET-SHAKER ROAD","city":"WATERVLIET","state":"NY","zip":"12189"},"latitude":"42.727161","longitude":"-73.729446","needs_recoding":false}
{"human_address":{"address":"267 S PEARL STREET","city":"ALBANY","state":"NY","zip":"12202"},"latitude":"42.64204","longitude":"-73.756688","needs_recoding":false}
{"human_address":{"address":"310 S PEARL ST","city":"ALBANY","state":"NY","zip":"12202"},"latitude":"42.64044","longitude":"-73.757622","needs_recoding":false}
{"human_address":{"address":"317 DELAWARE AVENUE","city":"DELMAR","state":"NY","zip":"12054"},"latitude":"42.624024","longitude":"-73.827815","needs_recoding":false}
{"human_address":{"address":"114A QUAIL STREET","city":"ALBANY","state":"NY","zip":"12206"},"latitude":"42.665813","longitude":"-73.772871","needs_recoding":false}
{"human_address":{"address":"53 NORTH SWAN ST","city":"ALBANY","state":"NY","zip":"12210"},"latitude":"42.658999","longitude":"-73.753427","needs_recoding":false}
{"human_address":{"address":"156 WOLF RD","city":"ALBANY","state":"NY","zip":"12205"},"latitude":"42.720918","longitude":"-73.803231","needs_recoding":false}
{"human_address":{"address":"791 MADISON AVE","city":"ALBANY","state":"NY","zip":"12208"},"latitude":"42.659666","longitude":"-73.780335","needs_recoding":false}
{"human_address":{"address":"515 S PEARL ST","city":"ALBANY","state":"NY","zip":"12202"},"latitude":"42.635119","longitude":"-73.76224","needs_recoding":false}
{"human_address":{"address":"553 WASHINGTON AVE","city":"ALBANY","state":"NY","zip":"12206"},"latitude":"42.664735","longitude":"-73.777103","needs_recoding":false}
{"human_address":{"address":"113 EVERETT","city":"ALBANY","state":"NY","zip":"12205"},"latitude":"42.693853","longitude":"-73.773554","needs_recoding":false}
{"human_address":{"address":"217 REMSEN ST","city":"COHOES","state":"NY","zip":"12047"},"latitude":"42.771042","longitude":"-73.700562","needs_recoding":false}
{"human_address":{"address":"180 DELAWARE AVE","city":"DELMAR","state":"NY","zip":"12054"},"latitude":"42.62889","longitude":"-73.811645","needs_recoding":false}
{"human_address":{"address":"1939 CENTRAL AVE","city":"ALBANY","state":"NY","zip":"12205"},"latitude":"42.73863","longitude":"-73.85682","needs_recoding":false}
{"human_address":{"address":"791 NEW SCOTLAND AVE","city":"ALBANY","state":"NY","zip":"12208"},"latitude":"42.658259","longitude":"-73.815081","needs_recoding":false}
{"human_address":{"address":"462 TROY SCHENECTADY ROAD","city":"LATHAM","state":"NY","zip":"12110"},"latitude":"42.746593","longitude":"-73.758163","needs_recoding":false}
{"human_address":{"address":"1 CROSSGATES MALL RD","city":"ALBANY","state":"NY","zip":"12203"},"latitude":"42.687038","longitude":"-73.850605","needs_recoding":false}
{"human_address":{"address":"6 EMPIRE STATE PLAZA","city":"ALBANY","state":"NY","zip":"12228"},"needs_recoding":false}
{"human_address":{"address":"591 BROADWAY","city":"ALBANY","state":"NY","zip":"12204"},"latitude":"42.704332","longitude":"-73.714362","needs_recoding":false}
{"human_address":{"address":"612 CENTRAL AVE","city":"ALBANY","state":"NY","zip":"12206"},"latitude":"42.672911","longitude":"-73.781815","needs_recoding":false}
{"human_address":{"address":"58 N PEARL ST","city":"ALBANY","state":"NY","zip":"12207"},"latitude":"42.651592","longitude":"-73.751504","needs_recoding":false}
{"human_address":{"address":"91 SOUTHERN BLVD","city":"ALBANY","state":"NY","zip":"12209"},"latitude":"42.636808","longitude":"-73.78367","needs_recoding":false}
{"human_address":{"address":"2080 WESTERN AVE","city":"GUILDERLAND","state":"NY","zip":"12084"},"latitude":"42.698502","longitude":"-73.89159","needs_recoding":false}
{"human_address":{"address":"724 NEW LOUDON RD","city":"LATHAM","state":"NY","zip":"12110"},"latitude":"42.740733","longitude":"-73.762044","needs_recoding":false}
{"human_address":{"address":"1885 CENTRAL AVENUE","city":"ALBANY","state":"NY","zip":"12205"},"latitude":"42.734676","longitude":"-73.852306","needs_recoding":false}
{"human_address":{"address":"57 EXCHANGE ST","city":"ALBANY","state":"NY","zip":"12205"},"latitude":"42.685191","longitude":"-73.783307","needs_recoding":false}
{"human_address":{"address":"21 CENTRAL AVE","city":"ALBANY","state":"NY","zip":"12210"},"latitude":"42.657566","longitude":"-73.764261","needs_recoding":false}
{"human_address":{"address":"5239 WESTERN TPK","city":"ALTAMONT","state":"NY","zip":"12009"},"latitude":"42.715686","longitude":"-73.934476","needs_recoding":false}
{"human_address":{"address":"180 DELAWARE AVE","city":"DELMAR","state":"NY","zip":"12054"},"latitude":"42.62889","longitude":"-73.811645","needs_recoding":false}
{"human_address":{"address":"96 WOLF RD","city":"ALBANY","state":"NY","zip":"12205"},"latitude":"42.716008","longitude":"-73.810596","needs_recoding":false}
{"human_address":{"address":"1010 19TH STREET","city":"WATERVLIET","state":"NY","zip":"12189"},"latitude":"42.733018","longitude":"-73.71175","needs_recoding":false}
{"human_address":{"address":"617 CENTRAL AVE","city":"ALBANY","state":"NY","zip":"12206"},"latitude":"42.673848","longitude":"-73.782894","needs_recoding":false}
{"human_address":{"address":"88 WOLF RD","city":"ALBANY","state":"NY","zip":"12205"},"latitude":"42.715359","longitude":"-73.81165","needs_recoding":false}
{"human_address":{"address":"333 SOUTH PEARL ST","city":"ALBANY","state":"NY","zip":"12202"},"latitude":"42.640383","longitude":"-73.757649","needs_recoding":false}
{"human_address":{"address":"141 WARNERS LAKE RD","city":"EAST BERNE","state":"NY","zip":"12059"},"latitude":"42.630263","longitude":"-74.078872","needs_recoding":false}
{"human_address":{"address":"109 CENTRAL AVE","city":"ALBANY","state":"NY","zip":"12206"},"latitude":"42.659806","longitude":"-73.766843","needs_recoding":false}
{"human_address":{"address":"579 TROY SCHENECTADY RD","city":"LATHAM","state":"NY","zip":"12110"},"latitude":"42.752101","longitude":"-73.766837","needs_recoding":false}
{"human_address":{"address":"821 NEW SCOTLAND AVE","city":"ALBANY","state":"NY","zip":"12208"},"latitude":"42.657939","longitude":"-73.815329","needs_recoding":false}
{"human_address":{"address":"420 BROADWAY","city":"ALBANY","state":"NY","zip":"12207"},"latitude":"42.648564","longitude":"-73.750777","needs_recoding":false}
{"human_address":{"address":"1214 TROY SCHENECTADY ROAD","city":"LATHAM","state":"NY","zip":"12110"},"latitude":"42.771902","longitude":"-73.823151","needs_recoding":false}
{"human_address":{"address":"50 WOLF ROAD","city":"ALBANY","state":"NY","zip":"12223"},"latitude":"42.713167","longitude":"-73.815194","needs_recoding":false}
{"human_address":{"address":"160 STATE ST JUSTICE BLVD","city":"ALBANY","state":"NY","zip":"12223"},"needs_recoding":false}
{"human_address":{"address":"688D NEW LOUDON RD","city":"LATHAM","state":"NY","zip":"12110"},"latitude":"42.738083","longitude":"-73.76217","needs_recoding":false}
{"human_address":{"address":"540 DELAWARE AVE","city":"ALBANY","state":"NY","zip":"12209"},"latitude":"42.638603","longitude":"-73.788523","needs_recoding":false}
{"human_address":{"address":"1 CROSSGATES MALL RD","city":"ALBANY","state":"NY","zip":"12203"},"latitude":"42.687038","longitude":"-73.850605","needs_recoding":false}
{"human_address":{"address":"131 COLONIE CENTER","city":"ALBANY","state":"NY","zip":"12205"},"latitude":"42.708249","longitude":"-73.816464","needs_recoding":false}
{"human_address":{"address":"1080 SETTLES HILL RD","city":"ALTAMONT","state":"NY","zip":"12009"},"latitude":"42.748642","longitude":"-74.045137","needs_recoding":false}
{"human_address":{"address":"26 CR","city":"RENSSELAERVILLE","state":"NY","zip":"12147"},"needs_recoding":false}
{"human_address":{"address":"1095 LOUDON ROAD","city":"COHOES","state":"NY","zip":"12047"},"latitude":"42.783249","longitude":"-73.744483","needs_recoding":false}
{"human_address":{"address":"346 CENTRAL AVENUE","city":"ALBANY","state":"NY","zip":"12206"},"latitude":"42.666051","longitude":"-73.773972","needs_recoding":false}
{"human_address":{"address":"288 STATE ROUTE","city":"WESTERLO","state":"NY","zip":"12193"},"needs_recoding":false}
{"human_address":{"address":"131 CENTRAL AVE","city":"ALBANY","state":"NY","zip":"12206"},"latitude":"42.660412","longitude":"-73.767535","needs_recoding":false}
{"human_address":{"address":"477 DELAWARE AVE","city":"ALBANY","state":"NY","zip":"12209"},"latitude":"42.639931","longitude":"-73.784962","needs_recoding":false}
{"human_address":{"address":"11949 MANNING BLVD","city":"ALBANY","state":"NY","zip":"12208"},"needs_recoding":false}
{"human_address":{"address":"951 LOUDON RD","city":"LATHAM","state":"NY","zip":"12110"},"latitude":"42.765321","longitude":"-73.754852","needs_recoding":false}
{"human_address":{"address":"448 SAND CREEK RD","city":"ALBANY","state":"NY","zip":"12205"},"latitude":"42.714458","longitude":"-73.809966","needs_recoding":false}
{"human_address":{"address":"77 N LAKE AVE","city":"ALBANY","state":"NY","zip":"12206"},"latitude":"42.663325","longitude":"-73.771783","needs_recoding":false}
{"human_address":{"address":"143 TROY SCHENECTADY RD","city":"WATERVLIET","state":"NY","zip":"12189"},"latitude":"42.737338","longitude":"-73.724922","needs_recoding":false}
{"human_address":{"address":"438 CENTRAL AVENUE","city":"ALBANY","state":"NY","zip":"12206"},"latitude":"42.668322","longitude":"-73.776563","needs_recoding":false}
{"human_address":{"address":"484 ALBANY SHAKER RD","city":"ALBANY","state":"NY","zip":"12211"},"latitude":"42.706611","longitude":"-73.777165","needs_recoding":false}
{"human_address":{"address":"167 QUAIL STREET","city":"ALBANY","state":"NY","zip":"12203"},"latitude":"42.662893","longitude":"-73.776162","needs_recoding":false}
{"human_address":{"address":"607 BROADWAY","city":"WATERVLIET","state":"NY","zip":"12189"},"latitude":"42.712511","longitude":"-73.705255","needs_recoding":false}
{"human_address":{"address":"1632A CENTRAL AVE","city":"ALBANY","state":"NY","zip":"12205"},"latitude":"42.719926","longitude":"-73.835528","needs_recoding":false}
{"human_address":{"address":"1634 HELDERBERG TRAIL","city":"BERNE","state":"NY","zip":"12023"},"latitude":"42.625194","longitude":"-74.133972","needs_recoding":false}
{"human_address":{"address":"112 QUAIL STREET","city":"ALBANY","state":"NY","zip":"12206"},"latitude":"42.665928","longitude":"-73.772687","needs_recoding":false}
{"human_address":{"address":"1800 WESTERN AVE","city":"ALBANY","state":"NY","zip":"12203"},"latitude":"42.690106","longitude":"-73.865908","needs_recoding":false}
{"human_address":{"address":"55 LEXINGTON AVE","city":"ALBANY","state":"NY","zip":"12206"},"latitude":"42.66171","longitude":"-73.765017","needs_recoding":false}
{"human_address":{"address":"20 CENTRAL AVE","city":"ALBANY","state":"NY","zip":"12210"},"latitude":"42.657551","longitude":"-73.764242","needs_recoding":false}
{"human_address":{"address":"26 30 N 3RD ST","city":"ALBANY","state":"NY","zip":"12204"},"latitude":"42.674065","longitude":"-73.738555","needs_recoding":false}
{"human_address":{"address":"28 BROADWAY","city":"ALBANY","state":"NY","zip":"12204"},"latitude":"42.678399","longitude":"-73.734185","needs_recoding":false}
{"human_address":{"address":"116 QUAIL ST","city":"ALBANY","state":"NY","zip":"12206"},"latitude":"42.665232","longitude":"-73.773667","needs_recoding":false}
{"human_address":{"address":"418 SOUTH PEARL STREET","city":"ALBANY","state":"NY","zip":"12202"},"latitude":"42.637266","longitude":"-73.759808","needs_recoding":false}
{"human_address":{"address":"130 MADISON AVE","city":"ALBANY","state":"NY","zip":"12202"},"latitude":"42.646052","longitude":"-73.755891","needs_recoding":false}
{"human_address":{"address":"113 EVERETT ROAD","city":"ALBANY","state":"NY","zip":"12205"},"latitude":"42.693853","longitude":"-73.773554","needs_recoding":false}
{"human_address":{"address":"145 MADISON AVE","city":"ALBANY","state":"NY","zip":"12202"},"latitude":"42.64629","longitude":"-73.756657","needs_recoding":false}
{"human_address":{"address":"664 NEW LOUDON RD","city":"LATHAM","state":"NY","zip":"12110"},"latitude":"42.736131","longitude":"-73.762267","needs_recoding":false}
{"human_address":{"address":"351 ONTARIO ST","city":"ALBANY","state":"NY","zip":"12208"},"latitude":"42.658167","longitude":"-73.784623","needs_recoding":false}
{"human_address":{"address":"46 ONTARIO ST","city":"ALBANY","state":"NY","zip":"12206"},"latitude":"42.670252","longitude":"-73.771969","needs_recoding":false}
{"human_address":{"address":"719 NEW LOUDON RD","city":"LATHAM","state":"NY","zip":"12110"},"latitude":"42.739618","longitude":"-73.761949","needs_recoding":false}
{"human_address":{"address":"1667 WESTERN AVENUE","city":"ALBANY","state":"NY","zip":"12203"},"latitude":"42.686553","longitude":"-73.854665","needs_recoding":false}
{"human_address":{"address":"381 SARATOGA ST","city":"COHOES","state":"NY","zip":"12047"},"latitude":"42.76352","longitude":"-73.699799","needs_recoding":false}
{"human_address":{"address":"252 LARK ST","city":"ALBANY","state":"NY","zip":"12210"},"latitude":"42.654182","longitude":"-73.765911","needs_recoding":false}
{"human_address":{"address":"41 VISTA BLVD","city":"SLINGERLANDS","state":"NY","zip":"12159"},"latitude":"42.641191","longitude":"-73.863049","needs_recoding":false}
